CCSDS_OMM_VERS = 2.0
CREATION_DATE  = 
ORIGINATOR     = 

OBJECT_NAME    = ALOS (DAICHI)
OBJECT_ID      = 2006-002A
CENTER_NAME    = EARTH
REF_FRAME      = TEME
TIME_SYSTEM    = UTC
MEAN_ELEMENT_THEORY = SGP/SGP4

EPOCH          = 2026-02-11T18:27:28.567296
MEAN_MOTION    = 14.69722981
ECCENTRICITY   = .00019473
INCLINATION    = 98.1172
RA_OF_ASC_NODE = 358.8640
ARG_OF_PERICENTER = 62.3904
MEAN_ANOMALY   = 297.7499

EPHEMERIS_TYPE = 0
CLASSIFICATION_TYPE = U
NORAD_CAT_ID   = 28931
ELEMENT_SET_NO = 999
REV_AT_EPOCH   = 6967
BSTAR          = .27082162E-3
MEAN_MOTION_DOT = .1564E-4
MEAN_MOTION_DDOT = 0

CCSDS_OMM_VERS = 2.0
CREATION_DATE  = 
ORIGINATOR     = 

OBJECT_NAME    = H-2A R/B
OBJECT_ID      = 2006-002B
CENTER_NAME    = EARTH
REF_FRAME      = TEME
TIME_SYSTEM    = UTC
MEAN_ELEMENT_THEORY = SGP/SGP4

EPOCH          = 2026-02-12T00:02:33.252864
MEAN_MOTION    = 15.15894939
ECCENTRICITY   = .00525632
INCLINATION    = 98.2362
RA_OF_ASC_NODE = 187.8364
ARG_OF_PERICENTER = 329.7515
MEAN_ANOMALY   = 30.0683

EPHEMERIS_TYPE = 0
CLASSIFICATION_TYPE = U
NORAD_CAT_ID   = 28932
ELEMENT_SET_NO = 999
REV_AT_EPOCH   = 9054
BSTAR          = .48047511E-3
MEAN_MOTION_DOT = .9452E-4
MEAN_MOTION_DDOT = 0

CCSDS_OMM_VERS = 2.0
CREATION_DATE  = 
ORIGINATOR     = 

OBJECT_NAME    = RESURS-DK 1
OBJECT_ID      = 2006-021A
CENTER_NAME    = EARTH
REF_FRAME      = TEME
TIME_SYSTEM    = UTC
MEAN_ELEMENT_THEORY = SGP/SGP4

EPOCH          = 2026-02-12T03:25:09.338016
MEAN_MOTION    = 15.12596727
ECCENTRICITY   = .00042605
INCLINATION    = 69.9344
RA_OF_ASC_NODE = 303.1005
ARG_OF_PERICENTER = 200.4602
MEAN_ANOMALY   = 159.6394

EPHEMERIS_TYPE = 0
CLASSIFICATION_TYPE = U
NORAD_CAT_ID   = 29228
ELEMENT_SET_NO = 999
REV_AT_EPOCH   = 8366
BSTAR          = .17540989E-3
MEAN_MOTION_DOT = .2963E-4
MEAN_MOTION_DDOT = 0

CCSDS_OMM_VERS = 2.0
CREATION_DATE  = 
ORIGINATOR     = 

OBJECT_NAME    = CZ-4B R/B
OBJECT_ID      = 2006-046C
CENTER_NAME    = EARTH
REF_FRAME      = TEME
TIME_SYSTEM    = UTC
MEAN_ELEMENT_THEORY = SGP/SGP4

EPOCH          = 2026-02-12T01:52:29.869536
MEAN_MOTION    = 15.16625827
ECCENTRICITY   = .00333363
INCLINATION    = 97.5650
RA_OF_ASC_NODE = 88.0542
ARG_OF_PERICENTER = 359.1537
MEAN_ANOMALY   = 0.9633

EPHEMERIS_TYPE = 0
CLASSIFICATION_TYPE = U
NORAD_CAT_ID   = 29507
ELEMENT_SET_NO = 999
REV_AT_EPOCH   = 5616
BSTAR          = .28988006E-3
MEAN_MOTION_DOT = .5678E-4
MEAN_MOTION_DDOT = 0

CCSDS_OMM_VERS = 2.0
CREATION_DATE  = 
ORIGINATOR     = 

OBJECT_NAME    = CZ-2C R/B
OBJECT_ID      = 2007-010B
CENTER_NAME    = EARTH
REF_FRAME      = TEME
TIME_SYSTEM    = UTC
MEAN_ELEMENT_THEORY = SGP/SGP4

EPOCH          = 2026-02-12T07:02:25.675008
MEAN_MOTION    = 14.20237341
ECCENTRICITY   = .00590902
INCLINATION    = 98.3970
RA_OF_ASC_NODE = 157.8472
ARG_OF_PERICENTER = 9.2239
MEAN_ANOMALY   = 351.0009

EPHEMERIS_TYPE = 0
CLASSIFICATION_TYPE = U
NORAD_CAT_ID   = 31114
ELEMENT_SET_NO = 999
REV_AT_EPOCH   = 97611
BSTAR          = .76576886E-4
MEAN_MOTION_DOT = .125E-5
MEAN_MOTION_DDOT = 0

CCSDS_OMM_VERS = 2.0
CREATION_DATE  = 
ORIGINATOR     = 

OBJECT_NAME    = COSMO-SKYMED 1
OBJECT_ID      = 2007-023A
CENTER_NAME    = EARTH
REF_FRAME      = TEME
TIME_SYSTEM    = UTC
MEAN_ELEMENT_THEORY = SGP/SGP4

EPOCH          = 2026-02-12T06:07:09.086592
MEAN_MOTION    = 14.96329848
ECCENTRICITY   = .00009367
INCLINATION    = 97.8860
RA_OF_ASC_NODE = 234.0871
ARG_OF_PERICENTER = 90.8077
MEAN_ANOMALY   = 269.3252

EPHEMERIS_TYPE = 0
CLASSIFICATION_TYPE = U
NORAD_CAT_ID   = 31598
ELEMENT_SET_NO = 999
REV_AT_EPOCH   = 1110
BSTAR          = .36194006E-3
MEAN_MOTION_DOT = .4035E-4
MEAN_MOTION_DDOT = 0

CCSDS_OMM_VERS = 2.0
CREATION_DATE  = 
ORIGINATOR     = 

OBJECT_NAME    = COSMOS 2428
OBJECT_ID      = 2007-029A
CENTER_NAME    = EARTH
REF_FRAME      = TEME
TIME_SYSTEM    = UTC
MEAN_ELEMENT_THEORY = SGP/SGP4

EPOCH          = 2026-02-12T01:09:44.495424
MEAN_MOTION    = 14.12935198
ECCENTRICITY   = .00075424
INCLINATION    = 70.9396
RA_OF_ASC_NODE = 257.1679
ARG_OF_PERICENTER = 305.4959
MEAN_ANOMALY   = 54.5457

EPHEMERIS_TYPE = 0
CLASSIFICATION_TYPE = U
NORAD_CAT_ID   = 31792
ELEMENT_SET_NO = 999
REV_AT_EPOCH   = 96047
BSTAR          = .19118086E-3
MEAN_MOTION_DOT = .308E-5
MEAN_MOTION_DDOT = 0

CCSDS_OMM_VERS = 2.0
CREATION_DATE  = 
ORIGINATOR     = 

OBJECT_NAME    = SL-16 R/B
OBJECT_ID      = 2007-029B
CENTER_NAME    = EARTH
REF_FRAME      = TEME
TIME_SYSTEM    = UTC
MEAN_ELEMENT_THEORY = SGP/SGP4

EPOCH          = 2026-02-11T21:46:59.562048
MEAN_MOTION    = 14.14834541
ECCENTRICITY   = .0002068
INCLINATION    = 70.9739
RA_OF_ASC_NODE = 226.5783
ARG_OF_PERICENTER = 279.9557
MEAN_ANOMALY   = 183.3536

EPHEMERIS_TYPE = 0
CLASSIFICATION_TYPE = U
NORAD_CAT_ID   = 31793
ELEMENT_SET_NO = 999
REV_AT_EPOCH   = 96172
BSTAR          = .18673E-3
MEAN_MOTION_DOT = .313E-5
MEAN_MOTION_DDOT = 0

CCSDS_OMM_VERS = 2.0
CREATION_DATE  = 
ORIGINATOR     = 

OBJECT_NAME    = KORONAS-FOTON
OBJECT_ID      = 2009-003A
CENTER_NAME    = EARTH
REF_FRAME      = TEME
TIME_SYSTEM    = UTC
MEAN_ELEMENT_THEORY = SGP/SGP4

EPOCH          = 2026-02-12T05:06:12.451968
MEAN_MOTION    = 15.42650772
ECCENTRICITY   = .00090018
INCLINATION    = 82.4317
RA_OF_ASC_NODE = 302.3494
ARG_OF_PERICENTER = 246.4664
MEAN_ANOMALY   = 113.5638

EPHEMERIS_TYPE = 0
CLASSIFICATION_TYPE = U
NORAD_CAT_ID   = 33504
ELEMENT_SET_NO = 999
REV_AT_EPOCH   = 94181
BSTAR          = .33738661E-3
MEAN_MOTION_DOT = .14756E-3
MEAN_MOTION_DDOT = 0

CCSDS_OMM_VERS = 2.0
CREATION_DATE  = 
ORIGINATOR     = 

OBJECT_NAME    = CZ-2C R/B
OBJECT_ID      = 2011-030B
CENTER_NAME    = EARTH
REF_FRAME      = TEME
TIME_SYSTEM    = UTC
MEAN_ELEMENT_THEORY = SGP/SGP4

EPOCH          = 2026-02-11T20:56:24.063936
MEAN_MOTION    = 14.81120829
ECCENTRICITY   = .0054185
INCLINATION    = 97.8498
RA_OF_ASC_NODE = 0.6635
ARG_OF_PERICENTER = 74.7403
MEAN_ANOMALY   = 342.4189

EPHEMERIS_TYPE = 0
CLASSIFICATION_TYPE = U
NORAD_CAT_ID   = 37731
ELEMENT_SET_NO = 999
REV_AT_EPOCH   = 78627
BSTAR          = .22736E-3
MEAN_MOTION_DOT = .1757E-4
MEAN_MOTION_DDOT = 0

CCSDS_OMM_VERS = 2.0
CREATION_DATE  = 
ORIGINATOR     = 

OBJECT_NAME    = H-2A R/B
OBJECT_ID      = 2012-025E
CENTER_NAME    = EARTH
REF_FRAME      = TEME
TIME_SYSTEM    = UTC
MEAN_ELEMENT_THEORY = SGP/SGP4

EPOCH          = 2026-02-11T21:27:56.481408
MEAN_MOTION    = 14.94936268
ECCENTRICITY   = .0045566
INCLINATION    = 98.4675
RA_OF_ASC_NODE = 7.8904
ARG_OF_PERICENTER = 38.5689
MEAN_ANOMALY   = 321.8770

EPHEMERIS_TYPE = 0
CLASSIFICATION_TYPE = U
NORAD_CAT_ID   = 38341
ELEMENT_SET_NO = 999
REV_AT_EPOCH   = 74436
BSTAR          = .39322E-3
MEAN_MOTION_DOT = .4313E-4
MEAN_MOTION_DDOT = 0

CCSDS_OMM_VERS = 2.0
CREATION_DATE  = 
ORIGINATOR     = 

OBJECT_NAME    = SHIJIAN-16 (SJ-16)
OBJECT_ID      = 2013-057A
CENTER_NAME    = EARTH
REF_FRAME      = TEME
TIME_SYSTEM    = UTC
MEAN_ELEMENT_THEORY = SGP/SGP4

EPOCH          = 2026-02-12T06:53:43.413792
MEAN_MOTION    = 14.92250484
ECCENTRICITY   = .00166629
INCLINATION    = 74.9706
RA_OF_ASC_NODE = 233.1738
ARG_OF_PERICENTER = 176.2414
MEAN_ANOMALY   = 183.8902

EPHEMERIS_TYPE = 0
CLASSIFICATION_TYPE = U
NORAD_CAT_ID   = 39358
ELEMENT_SET_NO = 999
REV_AT_EPOCH   = 66771
BSTAR          = .19634466E-3
MEAN_MOTION_DOT = .1979E-4
MEAN_MOTION_DDOT = 0

