ALOS (DAICHI)           
1 28931U 06002A   26042.76908064  .00001564  00000+0  27082-3 0  9992
2 28931  98.1172 358.8640 0001947  62.3904 297.7499 14.69722981 69676
H-2A R/B                
1 28932U 06002B   26043.00177376  .00009452  00000+0  48048-3 0  9994
2 28932  98.2362 187.8364 0052563 329.7515  30.0683 15.15894939 90548
RESURS-DK 1             
1 29228U 06021A   26043.14246919  .00002963  00000+0  17541-3 0  9993
2 29228  69.9344 303.1005 0004260 200.4602 159.6394 15.12596727 83663
CZ-4B R/B               
1 29507U 06046C   26043.07812349  .00005678  00000+0  28988-3 0  9991
2 29507  97.5650  88.0542 0033336 359.1537   0.9633 15.16625827 56167
CZ-2C R/B               
1 31114U 07010B   26043.29335272  .00000125  00000+0  76577-4 0  9999
2 31114  98.3970 157.8472 0059090   9.2239 351.0009 14.20237341976119
COSMO-SKYMED 1          
1 31598U 07023A   26043.25496628  .00004035  00000+0  36194-3 0  9992
2 31598  97.8860 234.0871 0000936  90.8077 269.3252 14.96329848 11106
COSMOS 2428             
1 31792U 07029A   26043.04843166  .00000308  00000+0  19118-3 0  9990
2 31792  70.9396 257.1679 0007542 305.4959  54.5457 14.12935198960477
SL-16 R/B               
1 31793U 07029B   26042.90763382  .00000313  00000+0  18673-3 0  9997
2 31793  70.9739 226.5783 0002068 279.9557 183.3536 14.14834541961722
KORONAS-FOTON           
1 33504U 09003A   26043.21264412  .00014756  00000+0  33739-3 0  9994
2 33504  82.4317 302.3494 0009001 246.4664 113.5638 15.42650772941818
CZ-2C R/B               
1 37731U 11030B   26042.87250074  .00001757  00000+0  22736-3 0  9995
2 37731  97.8498   0.6635 0054185  74.7403 342.4189 14.81120829786273
H-2A R/B                
1 38341U 12025E   26042.89440372  .00004313  00000+0  39322-3 0  9992
2 38341  98.4675   7.8904 0045566  38.5689 321.8770 14.94936268744367
SHIJIAN-16 (SJ-16)      
1 39358U 13057A   26043.28730803  .00001979  00000+0  19634-3 0  9991
2 39358  74.9706 233.1738 0016662 176.2414 183.8902 14.92250484667713
